STARLINK-1661           
1 46355U 20062AG  26068.14213265  .00016603  00000+0  57075-3 0  9991
2 46355  53.1612  13.5256 0001035  95.5841 264.5278 15.30239796304316
HAWK-2C                 
1 47502U 21006CT  26068.67595434  .00008129  00000+0  25493-3 0  9997
2 47502  97.2417 114.9961 0006943 184.0877 176.0310 15.33286436284247
